[{"OBJECT_NAME":"CELESTIS-02 & TAURUS R\/B","OBJECT_ID":"1998-007D","EPOCH":"2026-03-09T22:56:59.337312","MEAN_MOTION":14.22453237,"ECCENTRICITY":0.00634235,"INCLINATION":108.0072,"RA_OF_ASC_NODE":131.996,"ARG_OF_PERICENTER":301.5817,"MEAN_ANOMALY":134.6877,"EPHEMERIS_TYPE":0,"CLASSIFICATION_TYPE":"U","NORAD_CAT_ID":25160,"ELEMENT_SET_NO":999,"REV_AT_EPOCH":45640,"BSTAR":6.4821117e-5,"MEAN_MOTION_DOT":1.8e-7,"MEAN_MOTION_DDOT":0},{"OBJECT_NAME":"FENGYUN 1C DEB","OBJECT_ID":"1999-025CMD","EPOCH":"2026-03-08T11:36:32.935392","MEAN_MOTION":14.31889653,"ECCENTRICITY":0.00354598,"INCLINATION":98.9513,"RA_OF_ASC_NODE":170.3566,"ARG_OF_PERICENTER":7.6389,"MEAN_ANOMALY":352.5326,"EPHEMERIS_TYPE":0,"CLASSIFICATION_TYPE":"U","NORAD_CAT_ID":31926,"ELEMENT_SET_NO":999,"REV_AT_EPOCH":96454,"BSTAR":0.00270307,"MEAN_MOTION_DOT":7.248e-5,"MEAN_MOTION_DDOT":0}]
